IRIDIUM 155             
1 43573U 18061E   23159.53591876  .00000179  00000+0  56785-4 0  9993
2 43573  86.3974 158.3706 0002431  83.6098 276.5375 14.34218590255021
IRIDIUM 154             
1 43574U 18061F   23159.51688148  .00000167  00000+0  52659-4 0  9994
2 43574  86.3978 158.4586 0002435  94.2921 265.8553 14.34219650255072
IRIDIUM 163             
1 43575U 18061G   23159.49785282  .00000164  00000+0  51432-4 0  9994
2 43575  86.3976 158.4161 0002306  92.7820 267.3640 14.34219229255041
IRIDIUM 156             
1 43576U 18061H   23159.54224886  .00000156  00000+0  48604-4 0  9997
2 43576  86.3975 158.4033 0002229  83.5661 276.5788 14.34217045255043
IRIDIUM 164             
1 43577U 18061J   23159.52322088  .00000012  00000+0 -29001-5 0  9992
2 43577  86.3979 158.4348 0002229  93.0602 267.0849 14.34216193255088
IRIDIUM 159             
1 43578U 18061K   23159.49149955  .00000151  00000+0  46802-4 0  9999
2 43578  86.4004 158.4037 0002054 127.4071 232.7312 14.34210386255040
IRIDIUM 180             
1 43922U 19002A   23159.35146623  .00000315  00000+0  10545-3 0  9998
2 43922  86.3960  95.3589 0002226  89.0346 271.1105 14.34219038230631
IRIDIUM 176             
1 43923U 19002B   23159.34379038  .00001180  00000+0  18319-3 0  9994
2 43923  86.6093  95.4011 0002458  86.2936 273.8562 14.72248121236699
IRIDIUM 168             
1 43924U 19002C   23159.34512616  .00000349  00000+0  11757-3 0  9991
2 43924  86.3962  95.4076 0002345  88.6067 271.5397 14.34218042230613
IRIDIUM 173             
1 43925U 19002D   23159.33243950  .00000306  00000+0  10229-3 0  9999
2 43925  86.3956  95.3465 0002309  90.8914 269.2546 14.34216962230590
IRIDIUM 169             
1 43926U 19002E   23159.63699207  .00000441  00000+0  13757-3 0  9992
2 43926  86.4215 126.8358 0005162  47.1417 313.0214 14.38619539231428
IRIDIUM 172             
1 43927U 19002F   23159.32609303  .00000325  00000+0  10896-3 0  9999
2 43927  86.3959  95.3544 0002315  85.7573 274.3887 14.34220401230604
IRIDIUM 175             
1 43928U 19002G   23159.33750790  .00001226  00000+0  19052-3 0  9992
2 43928  86.1510  89.7218 0002458  86.6507 273.4990 14.72241649236684
IRIDIUM 171             
1 43929U 19002H   23159.58614359  .00000015  00000+0 -16879-5 0  9992
2 43929  86.3970  95.4294 0002238  88.4085 271.7367 14.34216623230632
IRIDIUM 170             
1 43930U 19002J   23159.35002682  .00001178  00000+0  18292-3 0  9998
2 43930  86.6092  95.4034 0002402  89.0099 271.1393 14.72245472236702
IRIDIUM 167             
1 43931U 19002K   23159.57979968  .00000353  00000+0  11892-3 0  9996
2 43931  86.3962  95.2610 0002250  90.0160 270.1293 14.34219034230633
IRIDIUM 181             
1 56726U 23068S   23159.44840150  .00001573  00000+0  20298-3 0  9990
2 56726  86.6759 132.4944 0002787 117.9834 242.1670 14.80358964  2948
IRIDIUM 177             
1 56727U 23068T   23159.44261895  .00000067  00000+0  52928-5 0  9998
2 56727  86.6756 132.4883 0002702 110.5174 249.6338 14.80314022  2941
IRIDIUM 174             
1 56728U 23068U   23159.70757948  .00001619  00000+0  20920-3 0  9996
2 56728  86.6803 132.3867 0002503 106.9071 253.2425 14.80315132  2985
IRIDIUM 178             
1 56729U 23068V   23159.63428490  .00001528  00000+0  19765-3 0  9990
2 56729  86.6747 132.3977 0002152 103.7115 256.4346 14.80242736  2974
IRIDIUM 179             
1 56730U 23068W   23159.62841379  .00000056  00000+0  38783-5 0  9994
2 56730  86.6788 132.4042 0002040 105.4000 254.7448 14.80218800  2972
